NORAD_CAT_ID,OBJECT_NAME,OBJECT_TYPE,EPOCH,MEAN_MOTION,ECCENTRICITY,INCLINATION,RA_OF_ASC_NODE,ARG_OF_PERICENTER,MEAN_ANOMALY,BSTAR,MEAN_MOTION_DOT,MEAN_MOTION_DDOT,TLE_LINE0,TLE_LINE1,TLE_LINE2,SEMIMAJOR_AXIS,PERIOD,APOGEE,PERIGEE,DECAYED
51968.0,STARLINK-3681,PAYLOAD,2023-12-17 11:50:47,15.08024072,0.0001394,53.0559,77.3036,76.251,283.8635,1.0475e-05,-1.23e-06,0.0,0 STARLINK-3681,1 51968U 22025N   23351.49360407 -.00000123  00000-0  10475-4 0  9995,2 51968  53.0559  77.3036 0001394  76.2510 283.8635 15.08024072 99510,6920.375,95.489,543.205,541.276,0.0
51968.0,STARLINK-3681,PAYLOAD,2023-12-17 13:26:13,15.0802551,0.0001422,53.0563,77.0048,74.2733,285.8413,5.1518e-05,5.16e-06,0.0,0 STARLINK-3681,1 51968U 22025N   23351.55987715  .00000516  00000-0  51518-4 0  9997,2 51968  53.0563  77.0048 0001422  74.2733 285.8413 15.08025510 98425,6920.371,95.489,543.22,541.252,0.0
51968.0,STARLINK-3681,PAYLOAD,2023-12-18 11:42:19,15.0803703,0.0001795,53.0571,72.8278,63.0395,297.0778,3.5578e-05,2.68e-06,0.0,0 STARLINK-3681,1 51968U 22025N   23352.48772202  .00000268  00000-0  35578-4 0  9995,2 51968  53.0571  72.8278 0001795  63.0395 297.0778 15.08037030 99661,6920.336,95.488,543.443,540.959,0.0
51968.0,STARLINK-3681,PAYLOAD,2023-12-19 11:33:51,15.08030965,0.0001692,53.0564,68.3606,66.0952,294.0215,5.6051e-05,5.87e-06,0.0,0 STARLINK-3681,1 51968U 22025N   23353.48184916  .00000587  00000-0  56051-4 0  9998,2 51968  53.0564  68.3606 0001692  66.0952 294.0215 15.08030965 99816,6920.354,95.489,543.39,541.048,0.0
51968.0,STARLINK-3681,PAYLOAD,2023-12-20 11:25:24,15.08030308,0.0001616,53.057,63.881,101.4658,258.6514,1.361e-05,-7.4e-07,0.0,0 STARLINK-3681,1 51968U 22025N   23354.47597388 -.00000074  00000-0  13610-4 0  9995,2 51968  53.0570  63.8810 0001616 101.4658 258.6514 15.08030308 98866,6920.356,95.489,543.34,541.103,0.0
51968.0,STARLINK-3681,PAYLOAD,2023-12-21 00:08:53,15.08034786,0.0001509,53.0573,61.4951,108.4949,251.6205,2.1924e-05,5.5e-07,0.0,0 STARLINK-3681,1 51968U 22025N   23355.00617069  .00000055  00000-0  21924-4 0  9999,2 51968  53.0573  61.4951 0001509 108.4949 251.6205 15.08034786100048,6920.343,95.489,543.252,541.163,0.0
51968.0,STARLINK-3681,PAYLOAD,2023-12-21 11:16:55,15.08043045,0.0001467,53.0567,59.4074,99.8,260.3156,3.796e-05,3.05e-06,0.0,0 STARLINK-3681,1 51968U 22025N   23355.47008955  .00000305  00000-0  37960-4 0  9993,2 51968  53.0567  59.4074 0001467  99.8000 260.3156 15.08043045 99012,6920.317,95.488,543.198,541.167,0.0
51968.0,STARLINK-3681,PAYLOAD,2023-12-22 09:33:02,15.08030472,0.0001715,53.057,55.2257,122.0362,238.0795,-1.7857e-06,-3.14e-06,0.0,0 STARLINK-3681,1 51968U 22025N   23356.39794774 -.00000314  00000-0 -17857-5 0  9992,2 51968  53.0570  55.2257 0001715 122.0362 238.0795 15.08030472100259,6920.356,95.489,543.408,541.034,0.0
51968.0,STARLINK-3681,PAYLOAD,2023-12-23 14:10:53,15.08034886,0.0001464,53.0559,49.8547,101.6658,258.4496,1.9483e-05,1.7e-07,0.0,0 STARLINK-3681,1 51968U 22025N   23357.59089614  .00000017  00000-0  19483-4 0  9999,2 51968  53.0559  49.8547 0001464 101.6658 258.4496 15.08034886 99332,6920.342,95.489,543.221,541.194,0.0
51968.0,STARLINK-3681,PAYLOAD,2023-12-24 02:54:23,15.08037119,0.0002305,53.0576,47.4698,139.3252,220.791,-0.00014315,-2.515e-05,0.0,0 STARLINK-3681,1 51968U 22025N   23358.12110124 -.00002515  00000-0 -14315-3 0  9995,2 51968  53.0576  47.4698 0002305 139.3252 220.7910 15.08037119100513,6920.336,95.488,543.796,540.605,0.0
51968.0,STARLINK-3681,PAYLOAD,2023-12-24 10:51:33,15.08037802,0.0001451,53.0571,45.9808,97.1244,262.991,0.00016093,2.221e-05,0.0,0 STARLINK-3681,1 51968U 22025N   23358.45246777  .00002221  00000-0  16093-3 0  9992,2 51968  53.0571  45.9808 0001451  97.1244 262.9910 15.08037802100569,6920.333,95.488,543.203,541.194,0.0
51968.0,STARLINK-3681,PAYLOAD,2023-12-25 02:45:55,15.08033255,0.0001454,53.0564,43.0019,87.5868,272.5288,8.6363e-05,1.059e-05,0.0,0 STARLINK-3681,1 51968U 22025N   23359.11522215  .00001059  00000-0  86363-4 0  9996,2 51968  53.0564  43.0019 0001454  87.5868 272.5288 15.08033255100666,6920.347,95.489,543.219,541.206,0.0
51968.0,STARLINK-3681,PAYLOAD,2023-12-25 09:07:39,15.0803327,0.0001487,53.0562,41.8093,82.5764,277.5395,7.8608e-05,9.38e-06,0.0,0 STARLINK-3681,1 51968U 22025N   23359.38032271  .00000938  00000-0  78608-4 0  9991,2 51968  53.0562  41.8093 0001487  82.5764 277.5395 15.08033270 99600,6920.347,95.489,543.241,541.183,0.0
51968.0,STARLINK-3681,PAYLOAD,2023-12-26 02:37:27,15.08023622,0.0001443,53.0562,38.5297,67.2011,292.9131,9.4768e-05,1.189e-05,0.0,0 STARLINK-3681,1 51968U 22025N   23360.10935118  .00001189  00000-0  94768-4 0  9999,2 51968  53.0562  38.5297 0001443  67.2011 292.9131 15.08023622100811,6920.377,95.489,543.24,541.243,0.0
51968.0,STARLINK-3681,PAYLOAD,2023-12-26 08:59:12,15.08028337,0.000167,53.0557,37.3358,74.6156,285.5018,1.7049e-05,-2.1e-07,0.0,0 STARLINK-3681,1 51968U 22025N   23360.37445163 -.00000021  00000-0  17049-4 0  9996,2 51968  53.0557  37.3358 0001670  74.6156 285.5018 15.08028337 99754,6920.362,95.489,543.383,541.072,0.0
51968.0,STARLINK-3681,PAYLOAD,2023-12-26 23:18:08,15.08016853,0.0001384,53.0562,34.6514,104.7065,255.4078,-7.8285e-05,-1.504e-05,0.0,0 STARLINK-3681,1 51968U 22025N   23360.97093652 -.00001504  00000-0 -78285-4 0  9991,2 51968  53.0562  34.6514 0001384 104.7065 255.4078 15.08016853100946,6920.398,95.49,543.22,541.305,0.0
51968.0,STARLINK-3681,PAYLOAD,2023-12-27 08:51:08,15.07750945,0.0001332,53.0561,32.8638,57.2806,302.8311,-0.0022595,-0.00035025,0.0,0 STARLINK-3681,1 51968U 22025N   23361.36885037 -.00035025  00000-0 -22595-2 0  9997,2 51968  53.0561  32.8638 0001332  57.2806 302.8311 15.07750945101001,6921.211,95.506,543.998,542.154,0.0
51968.0,STARLINK-3681,PAYLOAD,2023-12-27 13:37:36,15.07662091,0.0001202,53.056,31.9697,87.2486,272.8641,-0.0029049,-0.00044779,0.0,0 STARLINK-3681,1 51968U 22025N   23361.56778483 -.00044779  00000-0 -29049-2 0  9992,2 51968  53.0560  31.9697 0001202  87.2486 272.8641 15.07662091101037,6921.483,95.512,544.18,542.516,0.0
51968.0,STARLINK-3681,PAYLOAD,2023-12-28 14:00:01,15.06376434,0.0001169,53.0552,27.4051,75.2526,37.8314,0.0018994,0.00028105,0.0,0 STARLINK-3681,1 51968U 22025N   23362.58334491  .00028105  00000-0  18994-2 0  9992,2 51968  53.0552  27.4051 0001169  75.2526  37.8314 15.06376434101191,6925.421,95.594,548.095,546.476,0.0
51968.0,STARLINK-3681,PAYLOAD,2023-12-28 22:00:00,15.06361229,0.0001144,53.0555,25.9069,94.6145,27.1517,0.0039631,0.00059184,0.0,0 STARLINK-3681,1 51968U 22025N   23362.91667824  .00059184  00000-0  39631-2 0  9990,2 51968  53.0555  25.9069 0001144  94.6145  27.1517 15.06361229  5715,6925.467,95.595,548.125,546.54,0.0
51968.0,STARLINK-3681,PAYLOAD,2023-12-29 06:00:00,15.06420229,0.0001252,53.0556,24.4116,91.5865,38.8264,-0.0037186,-0.00055271,0.0,0 STARLINK-3681,1 51968U 22025N   23363.25001157 -.00055271  00000-0 -37186-2 0  9997,2 51968  53.0556  24.4116 0001252  91.5865  38.8264 15.06420229101292,6925.287,95.591,548.019,546.285,0.0
51968.0,STARLINK-3681,PAYLOAD,2023-12-29 14:00:01,15.06374412,0.0001265,53.0552,22.9157,85.7455,53.3539,0.0022064,0.00032713,0.0,0 STARLINK-3681,1 51968U 22025N   23363.58334491  .00032713  00000-0  22064-2 0  9996,2 51968  53.0552  22.9157 0001265  85.7455  53.3539 15.06374412  5810,6925.427,95.594,548.168,546.416,0.0
51968.0,STARLINK-3681,PAYLOAD,2023-12-29 22:00:00,15.06374223,0.0001281,53.0553,21.4177,99.071,48.7014,0.0039214,0.00058574,0.0,0 STARLINK-3681,1 51968U 22025N   23363.91667824  .00058574  00000-0  39214-2 0  9990,2 51968  53.0553  21.4177 0001281  99.0710  48.7014 15.06374223101393,6925.428,95.594,548.18,546.405,0.0
51968.0,STARLINK-3681,PAYLOAD,2023-12-30 14:00:01,15.06376917,0.0001331,53.055,18.4265,80.3658,84.7778,0.00040237,5.713e-05,0.0,0 STARLINK-3681,1 51968U 22025N   23364.58334491  .00005713  00000-0  40237-3 0  9990,2 51968  53.0550  18.4265 0001331  80.3658  84.7778 15.06376917101494,6925.419,95.594,548.206,546.363,0.0
51968.0,STARLINK-3681,PAYLOAD,2023-12-31 00:00:00,15.06370686,0.0001377,53.0551,16.5544,91.5739,174.3887,0.0030844,0.00045924,0.0,0 STARLINK-3681,1 51968U 22025N   23365.00001157  .00045924  00000-0  30844-2 0  9998,2 51968  53.0551  16.5544 0001377  91.5739 174.3887 15.06370686  5822,6925.438,95.594,548.257,546.35,0.0
51968.0,STARLINK-3681,PAYLOAD,2023-12-31 22:00:00,15.06376023,0.0001381,53.0549,12.4395,92.2551,107.549,0.0033932,0.00050591,0.0,0 STARLINK-3681,1 51968U 22025N   23365.91667824  .00050591  00000-0  33932-2 0  9994,2 51968  53.0549  12.4395 0001381  92.2551 107.5490 15.06376023101694,6925.422,95.594,548.243,546.331,0.0
51968.0,STARLINK-3681,PAYLOAD,2024-01-01 08:15:47,15.06409953,0.0001381,53.0571,10.5189,85.7642,274.3505,2.9916e-07,-2.77e-06,0.0,0 STARLINK-3681,1 51968U 22025N   24001.34429709 -.00000277  00000-0  29916-6 0  9995,2 51968  53.0571  10.5189 0001381  85.7642 274.3505 15.06409953101753,6925.318,95.592,548.139,546.227,0.0
51968.0,STARLINK-3681,PAYLOAD,2024-01-02 00:11:11,15.06395708,0.0001405,53.0564,7.542,86.9106,273.2044,5.8188e-05,5.85e-06,0.0,0 STARLINK-3681,1 51968U 22025N   24002.00777156  .00000585  00000-0  58188-4 0  9993,2 51968  53.0564   7.5420 0001405  86.9106 273.2044 15.06395708101853,6925.362,95.592,548.2,546.254,0.0
51968.0,STARLINK-3681,PAYLOAD,2024-01-02 06:33:21,15.06386615,0.0001477,53.057,6.3485,85.343,274.7727,-2.2687e-05,-6.19e-06,0.0,0 STARLINK-3681,1 51968U 22025N   24002.27316851 -.00000619  00000-0 -22687-4 0  9998,2 51968  53.0570   6.3485 0001477  85.3430 274.7727 15.06386615101895,6925.39,95.593,548.277,546.232,0.0
51968.0,STARLINK-3681,PAYLOAD,2024-01-03 03:15:21,15.06399319,0.000202,53.0573,2.4762,135.0273,225.088,1.7202e-05,-2.5e-07,0.0,0 STARLINK-3681,1 51968U 22025N   24003.13566760 -.00000025  00000-0  17202-4 0  9997,2 51968  53.0573   2.4762 0002020 135.0273 225.0880 15.06399319102026,6925.351,95.592,548.615,545.817,0.0
